NORAD_CAT_ID,OBJECT_NAME,OBJECT_TYPE,EPOCH,MEAN_MOTION,ECCENTRICITY,INCLINATION,RA_OF_ASC_NODE,ARG_OF_PERICENTER,MEAN_ANOMALY,BSTAR,MEAN_MOTION_DOT,MEAN_MOTION_DDOT,TLE_LINE0,TLE_LINE1,TLE_LINE2,SEMIMAJOR_AXIS,PERIOD,APOGEE,PERIGEE,DECAYED
55402.0,STARLINK-5071,PAYLOAD,2023-11-08 16:44:32,14.98350589,0.0003001,70.0014,52.7018,268.3151,91.7664,0.00015917,1.808e-05,0.0,0 STARLINK-5071,1 55402U 23014M   23312.69759872  .00001808  00000-0  15917-3 0  9993,2 55402  70.0014  52.7018 0003001 268.3151  91.7664 14.98350589 43498,6950.129,96.106,574.08,569.908,0.0
55402.0,STARLINK-5071,PAYLOAD,2023-11-09 00:45:13,14.98329294,0.000276,70.0016,51.8592,277.8191,82.2655,0.00028735,3.337e-05,0.0,0 STARLINK-5071,1 55402U 23014M   23313.03141007  .00003337  00000-0  28735-3 0  9998,2 55402  70.0016  51.8592 0002760 277.8191  82.2655 14.98329294 43547,6950.195,96.107,573.978,570.142,0.0
55402.0,STARLINK-5071,PAYLOAD,2023-11-09 11:58:11,14.98321825,0.0002875,70.0012,50.6809,269.5951,90.4879,0.00025686,2.972e-05,0.0,0 STARLINK-5071,1 55402U 23014M   23313.49873903  .00002972  00000-0  25686-3 0  9991,2 55402  70.0012  50.6809 0002875 269.5951  90.4879 14.98321825 43619,6950.218,96.108,574.081,570.085,0.0
55402.0,STARLINK-5071,PAYLOAD,2023-11-09 13:34:19,14.98315325,0.0002657,70.0016,50.5126,254.2293,105.8573,0.00035546,4.149e-05,0.0,0 STARLINK-5071,1 55402U 23014M   23313.56550095  .00004149  00000-0  35546-3 0  9997,2 55402  70.0016  50.5126 0002657 254.2293 105.8573 14.98315325 44567,6950.238,96.108,573.95,570.257,0.0
55402.0,STARLINK-5071,PAYLOAD,2023-11-09 16:46:34,14.9832588,0.0002664,70.0013,50.1759,267.8649,92.2205,0.00041252,4.832e-05,0.0,0 STARLINK-5071,1 55402U 23014M   23313.69901401  .00004832  00000-0  41252-3 0  9992,2 55402  70.0013  50.1759 0002664 267.8649  92.2205 14.98325880 43641,6950.206,96.107,573.922,570.219,0.0
55402.0,STARLINK-5071,PAYLOAD,2023-11-10 13:36:19,14.98343055,0.0002821,70.0012,47.9879,266.1729,93.9108,-0.00015271,-1.915e-05,0.0,0 STARLINK-5071,1 55402U 23014M   23314.56689309 -.00001915  00000-0 -15271-3 0  9992,2 55402  70.0012  47.9879 0002821 266.1729  93.9108 14.98343055 44716,6950.153,96.106,573.978,570.057,0.0
55402.0,STARLINK-5071,PAYLOAD,2023-11-10 16:48:35,14.98344576,0.0002744,70.0016,47.6519,267.284,92.8005,-0.00011818,-1.503e-05,0.0,0 STARLINK-5071,1 55402U 23014M   23314.70041024 -.00001503  00000-0 -11818-3 0  9990,2 55402  70.0016  47.6519 0002744 267.2840  92.8005 14.98344576 43798,6950.148,96.106,573.92,570.106,0.0
55402.0,STARLINK-5071,PAYLOAD,2023-11-11 13:38:20,14.98333561,0.0002816,70.0015,45.463,254.2014,105.8835,-1.4216e-05,-2.63e-06,0.0,0 STARLINK-5071,1 55402U 23014M   23315.56828940 -.00000263  00000-0 -14216-4 0  9993,2 55402  70.0015  45.4630 0002816 254.2014 105.8835 14.98333561 44863,6950.182,96.107,574.004,570.09,0.0
55402.0,STARLINK-5071,PAYLOAD,2023-11-11 15:14:28,14.98331601,0.0003017,70.0013,45.2947,259.2955,100.7864,-3.3335e-05,-4.91e-06,0.0,0 STARLINK-5071,1 55402U 23014M   23315.63505057 -.00000491  00000-0 -33335-4 0  9998,2 55402  70.0013  45.2947 0003017 259.2955 100.7864 14.98331601 43939,6950.188,96.107,574.15,569.956,0.0
55402.0,STARLINK-5071,PAYLOAD,2023-11-12 13:40:21,14.98340513,0.0002808,70.0006,42.9392,267.6425,92.4413,-0.0001764,-2.198e-05,0.0,0 STARLINK-5071,1 55402U 23014M   23316.56968795 -.00002198  00000-0 -17640-3 0  9999,2 55402  70.0006  42.9392 0002808 267.6425  92.4413 14.98340513 45011,6950.16,96.106,573.977,570.074,0.0
55402.0,STARLINK-5071,PAYLOAD,2023-11-12 15:16:29,14.98330445,0.0003118,70.0007,42.7708,274.4982,85.5821,7.4647e-06,-4e-08,0.0,0 STARLINK-5071,1 55402U 23014M   23316.63645002 -.00000004  00000-0  74647-5 0  9995,2 55402  70.0007  42.7708 0003118 274.4982  85.5821 14.98330445 44085,6950.192,96.107,574.224,569.889,0.0
55402.0,STARLINK-5071,PAYLOAD,2023-11-13 12:06:13,14.98338468,0.0003027,69.9999,40.5816,269.6968,90.3844,0.00010716,1.186e-05,0.0,0 STARLINK-5071,1 55402U 23014M   23317.50431967  .00001186  00000-0  10716-3 0  9991,2 55402  69.9999  40.5816 0003027 269.6968  90.3844 14.98338468 44214,6950.167,96.106,574.136,569.928,0.0
55402.0,STARLINK-5071,PAYLOAD,2023-11-13 23:19:09,14.98333672,0.0002912,70.0004,39.4039,269.6167,90.4659,2.3814e-05,1.91e-06,0.0,0 STARLINK-5071,1 55402U 23014M   23317.97164303  .00000191  00000-0  23814-4 0  9998,2 55402  70.0004  39.4039 0002912 269.6167  90.4659 14.98333672 44285,6950.182,96.107,574.07,570.023,0.0
55402.0,STARLINK-5071,PAYLOAD,2023-11-14 12:08:15,14.98323032,0.0002598,70.0007,38.0558,261.8524,98.234,7.3484e-06,-5e-08,0.0,0 STARLINK-5071,1 55402U 23014M   23318.50573071 -.00000005  00000-0  73484-5 0  9998,2 55402  70.0007  38.0558 0002598 261.8524  98.2340 14.98323032 44361,6950.214,96.107,573.885,570.274,0.0
55402.0,STARLINK-5071,PAYLOAD,2023-11-14 15:20:31,14.98323138,0.0003061,70.0,37.7201,266.4893,93.5916,-8.8658e-05,-1.15e-05,0.0,0 STARLINK-5071,1 55402U 23014M   23318.63925328 -.00001150  00000-0 -88658-4 0  9999,2 55402  70.0000  37.7201 0003061 266.4893  93.5916 14.98323138 45322,6950.214,96.107,574.207,569.952,0.0
55402.0,STARLINK-5071,PAYLOAD,2023-11-15 10:34:07,14.98340426,0.0002773,70.0001,35.6996,269.5553,90.5288,-0.00011358,-1.448e-05,0.0,0 STARLINK-5071,1 55402U 23014M   23319.44036392 -.00001448  00000-0 -11358-3 0  9995,2 55402  70.0001  35.6996 0002773 269.5553  90.5288 14.98340426 44504,6950.161,96.106,573.953,570.098,0.0
55402.0,STARLINK-5071,PAYLOAD,2023-11-15 12:10:15,14.98333092,0.0002756,70.0007,35.5318,261.6768,98.4079,-3.0248e-05,-4.54e-06,0.0,0 STARLINK-5071,1 55402U 23014M   23319.50712604 -.00000454  00000-0 -30248-4 0  9995,2 55402  70.0007  35.5318 0002756 261.6768  98.4079 14.98333092 45450,6950.183,96.107,573.964,570.133,0.0
55402.0,STARLINK-5071,PAYLOAD,2023-11-16 07:23:52,14.98327195,0.0002863,70.0007,33.5123,266.0824,94.0008,8.7159e-05,9.47e-06,0.0,0 STARLINK-5071,1 55402U 23014M   23320.30824469  .00000947  00000-0  87159-4 0  9996,2 55402  70.0007  33.5123 0002863 266.0824  94.0008 14.98327195 44633,6950.202,96.107,574.056,570.077,0.0
55402.0,STARLINK-5071,PAYLOAD,2023-11-16 09:00:00,14.98334847,0.000248,70.0002,33.3433,267.4748,92.6127,3.5856e-06,-5e-07,0.0,0 STARLINK-5071,1 55402U 23014M   23320.37500316 -.00000050  00000-0  35856-5 0  9999,2 55402  70.0002  33.3433 0002480 267.4748  92.6127 14.98334847 45588,6950.178,96.107,573.767,570.319,0.0
55402.0,STARLINK-5071,PAYLOAD,2023-11-16 21:49:05,14.98324267,0.0002949,70.0005,31.9958,267.5805,92.5016,-7.1303e-05,-9.44e-06,0.0,0 STARLINK-5071,1 55402U 23014M   23320.90908968 -.00000944  00000-0 -71303-4 0  9992,2 55402  70.0005  31.9958 0002949 267.5805  92.5016 14.98324267 45662,6950.211,96.107,574.125,570.026,0.0
55402.0,STARLINK-5071,PAYLOAD,2023-11-17 12:14:17,14.98328853,0.000241,70.0015,30.4813,248.6751,111.415,-9.3687e-05,-1.21e-05,0.0,0 STARLINK-5071,1 55402U 23014M   23321.50992882 -.00001210  00000-0 -93687-4 0  9993,2 55402  70.0015  30.4813 0002410 248.6751 111.4150 14.98328853 44811,6950.196,96.107,573.736,570.386,0.0
55402.0,STARLINK-5071,PAYLOAD,2023-11-17 21:51:06,14.98328999,0.0002427,70.001,29.4718,266.5806,93.5076,-5.6488e-05,-7.67e-06,0.0,0 STARLINK-5071,1 55402U 23014M   23321.91048864 -.00000767  00000-0 -56488-4 0  9994,2 55402  70.0010  29.4718 0002427 266.5806  93.5076 14.98328999 45815,6950.196,96.107,573.748,570.374,0.0
55402.0,STARLINK-5071,PAYLOAD,2023-11-18 12:16:19,14.983235,0.0002601,70.0001,27.9563,264.4718,95.6144,-0.00010454,-1.34e-05,0.0,0 STARLINK-5071,1 55402U 23014M   23322.51133163 -.00001340  00000-0 -10454-3 0  9998,2 55402  70.0001  27.9563 0002601 264.4718  95.6144 14.98323500 44966,6950.213,96.107,573.886,570.27,0.0
55402.0,STARLINK-5071,PAYLOAD,2023-11-19 04:17:38,14.98328744,0.0002619,70.0014,26.2727,260.5985,99.4878,8.0157e-05,8.64e-06,0.0,0 STARLINK-5071,1 55402U 23014M   23323.17892248  .00000864  00000-0  80157-4 0  9993,2 55402  70.0014  26.2727 0002619 260.5985  99.4878 14.98328744 45069,6950.197,96.107,573.882,570.242,0.0
55402.0,STARLINK-5071,PAYLOAD,2023-11-19 13:54:27,14.98305833,0.0002686,70.0016,25.2632,247.1435,112.9441,0.00036375,4.247e-05,0.0,0 STARLINK-5071,1 55402U 23014M   23323.57948979  .00004247  00000-0  36375-3 0  9991,2 55402  70.0016  25.2632 0002686 247.1435 112.9441 14.98305833 46062,6950.268,96.109,573.999,570.266,0.0
55402.0,STARLINK-5071,PAYLOAD,2023-11-19 21:55:11,14.98282306,0.0001643,70.0018,24.4219,274.2489,85.8482,-0.00020466,-2.531e-05,0.0,0 STARLINK-5071,1 55402U 23014M   23323.91332269 -.00002531  00000-0 -20466-3 0  9998,2 55402  70.0018  24.4219 0001643 274.2489  85.8482 14.98282306 46116,6950.34,96.11,573.347,571.063,0.0
55402.0,STARLINK-5071,PAYLOAD,2023-11-20 10:44:09,14.98347852,0.0002034,70.0019,23.0754,254.3723,105.7212,0.000972,0.00011529,0.0,0 STARLINK-5071,1 55402U 23014M   23324.44732812  .00011529  00000-0  97200-3 0  9990,2 55402  70.0019  23.0754 0002034 254.3723 105.7212 14.98347852 45256,6950.138,96.106,573.416,570.589,0.0
55402.0,STARLINK-5071,PAYLOAD,2023-11-20 13:56:28,14.9832344,0.0002663,70.0006,22.7392,265.949,94.1365,0.00018994,2.174e-05,0.0,0 STARLINK-5071,1 55402U 23014M   23324.58088295  .00002174  00000-0  18994-3 0  9993,2 55402  70.0006  22.7392 0002663 265.9490  94.1365 14.98323440 46217,6950.213,96.107,573.929,570.227,0.0
55402.0,STARLINK-5071,PAYLOAD,2023-11-20 21:57:08,14.98331995,0.0002511,70.001,21.897,262.5287,97.5587,0.00010825,1.199e-05,0.0,0 STARLINK-5071,1 55402U 23014M   23324.91468062  .00001199  00000-0  10825-3 0  9995,2 55402  70.0010  21.8970 0002511 262.5287  97.5587 14.98331995 46265,6950.187,96.107,573.797,570.307,0.0
55402.0,STARLINK-5071,PAYLOAD,2023-11-21 10:46:12,14.98338412,0.0002762,70.0,20.5498,268.2456,91.8387,9.0637e-05,9.89e-06,0.0,0 STARLINK-5071,1 55402U 23014M   23325.44875471  .00000989  00000-0  90637-4 0  9996,2 55402  70.0000  20.5498 0002762 268.2456  91.8387 14.98338412 45405,6950.167,96.106,573.952,570.112,0.0
